CCSDS_OMM_VERS = 2.0
CREATION_DATE  = 
ORIGINATOR     = 

OBJECT_NAME    = STARLINK-36033
OBJECT_ID      = 2025-283R
CENTER_NAME    = EARTH
REF_FRAME      = TEME
TIME_SYSTEM    = UTC
MEAN_ELEMENT_THEORY = SGP/SGP4

EPOCH          = 2025-12-28T06:00:02.000160
MEAN_MOTION    = 15.49312786
ECCENTRICITY   = .00014539
INCLINATION    = 53.1598
RA_OF_ASC_NODE = 356.9311
ARG_OF_PERICENTER = 80.3810
MEAN_ANOMALY   = 265.9815

EPHEMERIS_TYPE = 0
CLASSIFICATION_TYPE = U
NORAD_CAT_ID   = 66893
ELEMENT_SET_NO = 999
REV_AT_EPOCH   = 492
BSTAR          = -.91627747E-3
MEAN_MOTION_DOT = -.51084E-3
MEAN_MOTION_DDOT = 0

CCSDS_OMM_VERS = 2.0
CREATION_DATE  = 
ORIGINATOR     = 

OBJECT_NAME    = STARLINK-35718
OBJECT_ID      = 2025-283S
CENTER_NAME    = EARTH
REF_FRAME      = TEME
TIME_SYSTEM    = UTC
MEAN_ELEMENT_THEORY = SGP/SGP4

EPOCH          = 2025-12-28T06:00:02.000160
MEAN_MOTION    = 15.49244839
ECCENTRICITY   = .0001355
INCLINATION    = 53.1599
RA_OF_ASC_NODE = 356.9281
ARG_OF_PERICENTER = 82.0406
MEAN_ANOMALY   = 266.2678

EPHEMERIS_TYPE = 0
CLASSIFICATION_TYPE = U
NORAD_CAT_ID   = 66894
ELEMENT_SET_NO = 999
REV_AT_EPOCH   = 492
BSTAR          = .11505496E-2
MEAN_MOTION_DOT = .63921E-3
MEAN_MOTION_DDOT = 0

CCSDS_OMM_VERS = 2.0
CREATION_DATE  = 
ORIGINATOR     = 

OBJECT_NAME    = STARLINK-35971
OBJECT_ID      = 2025-283T
CENTER_NAME    = EARTH
REF_FRAME      = TEME
TIME_SYSTEM    = UTC
MEAN_ELEMENT_THEORY = SGP/SGP4

EPOCH          = 2025-12-28T06:00:02.000160
MEAN_MOTION    = 15.49312079
ECCENTRICITY   = .00014582
INCLINATION    = 53.1598
RA_OF_ASC_NODE = 356.9181
ARG_OF_PERICENTER = 84.8811
MEAN_ANOMALY   = 267.2334

EPHEMERIS_TYPE = 0
CLASSIFICATION_TYPE = U
NORAD_CAT_ID   = 66895
ELEMENT_SET_NO = 999
REV_AT_EPOCH   = 492
BSTAR          = -.93350527E-3
MEAN_MOTION_DOT = -.52028E-3
MEAN_MOTION_DDOT = 0

CCSDS_OMM_VERS = 2.0
CREATION_DATE  = 
ORIGINATOR     = 

OBJECT_NAME    = STARLINK-35791
OBJECT_ID      = 2025-283U
CENTER_NAME    = EARTH
REF_FRAME      = TEME
TIME_SYSTEM    = UTC
MEAN_ELEMENT_THEORY = SGP/SGP4

EPOCH          = 2025-12-28T06:00:02.000160
MEAN_MOTION    = 15.49319179
ECCENTRICITY   = .00011648
INCLINATION    = 53.1597
RA_OF_ASC_NODE = 356.9228
ARG_OF_PERICENTER = 97.4152
MEAN_ANOMALY   = 252.7819

EPHEMERIS_TYPE = 0
CLASSIFICATION_TYPE = U
NORAD_CAT_ID   = 66896
ELEMENT_SET_NO = 999
REV_AT_EPOCH   = 492
BSTAR          = -.12296332E-2
MEAN_MOTION_DOT = -.68266E-3
MEAN_MOTION_DDOT = 0

CCSDS_OMM_VERS = 2.0
CREATION_DATE  = 
ORIGINATOR     = 

OBJECT_NAME    = STARLINK-36079
OBJECT_ID      = 2025-283V
CENTER_NAME    = EARTH
REF_FRAME      = TEME
TIME_SYSTEM    = UTC
MEAN_ELEMENT_THEORY = SGP/SGP4

EPOCH          = 2025-12-28T06:00:02.000160
MEAN_MOTION    = 15.49312468
ECCENTRICITY   = .00013532
INCLINATION    = 53.1599
RA_OF_ASC_NODE = 356.9149
ARG_OF_PERICENTER = 76.3779
MEAN_ANOMALY   = 277.6533

EPHEMERIS_TYPE = 0
CLASSIFICATION_TYPE = U
NORAD_CAT_ID   = 66897
ELEMENT_SET_NO = 999
REV_AT_EPOCH   = 492
BSTAR          = -.95650229E-3
MEAN_MOTION_DOT = -.53291E-3
MEAN_MOTION_DDOT = 0

CCSDS_OMM_VERS = 2.0
CREATION_DATE  = 
ORIGINATOR     = 

OBJECT_NAME    = STARLINK-36065
OBJECT_ID      = 2025-283W
CENTER_NAME    = EARTH
REF_FRAME      = TEME
TIME_SYSTEM    = UTC
MEAN_ELEMENT_THEORY = SGP/SGP4

EPOCH          = 2025-12-28T06:00:02.000160
MEAN_MOTION    = 15.49306225
ECCENTRICITY   = .00015409
INCLINATION    = 53.1600
RA_OF_ASC_NODE = 356.9106
ARG_OF_PERICENTER = 84.2937
MEAN_ANOMALY   = 271.6618

EPHEMERIS_TYPE = 0
CLASSIFICATION_TYPE = U
NORAD_CAT_ID   = 66898
ELEMENT_SET_NO = 999
REV_AT_EPOCH   = 492
BSTAR          = -.85861408E-3
MEAN_MOTION_DOT = -.47906E-3
MEAN_MOTION_DDOT = 0

CCSDS_OMM_VERS = 2.0
CREATION_DATE  = 
ORIGINATOR     = 

OBJECT_NAME    = STARLINK-36064
OBJECT_ID      = 2025-283X
CENTER_NAME    = EARTH
REF_FRAME      = TEME
TIME_SYSTEM    = UTC
MEAN_ELEMENT_THEORY = SGP/SGP4

EPOCH          = 2025-12-28T06:00:02.000160
MEAN_MOTION    = 15.49308645
ECCENTRICITY   = .00014646
INCLINATION    = 53.1600
RA_OF_ASC_NODE = 356.9066
ARG_OF_PERICENTER = 77.4693
MEAN_ANOMALY   = 280.3970

EPHEMERIS_TYPE = 0
CLASSIFICATION_TYPE = U
NORAD_CAT_ID   = 66899
ELEMENT_SET_NO = 999
REV_AT_EPOCH   = 486
BSTAR          = -.80256779E-3
MEAN_MOTION_DOT = -.44829E-3
MEAN_MOTION_DDOT = 0

CCSDS_OMM_VERS = 2.0
CREATION_DATE  = 
ORIGINATOR     = 

OBJECT_NAME    = STARLINK-36074
OBJECT_ID      = 2025-283Y
CENTER_NAME    = EARTH
REF_FRAME      = TEME
TIME_SYSTEM    = UTC
MEAN_ELEMENT_THEORY = SGP/SGP4

EPOCH          = 2025-12-28T06:00:02.000160
MEAN_MOTION    = 15.49310570
ECCENTRICITY   = .00015023
INCLINATION    = 53.1599
RA_OF_ASC_NODE = 356.9025
ARG_OF_PERICENTER = 83.0808
MEAN_ANOMALY   = 276.7040

EPHEMERIS_TYPE = 0
CLASSIFICATION_TYPE = U
NORAD_CAT_ID   = 66900
ELEMENT_SET_NO = 999
REV_AT_EPOCH   = 492
BSTAR          = -.88882376E-3
MEAN_MOTION_DOT = -.49573E-3
MEAN_MOTION_DDOT = 0

CCSDS_OMM_VERS = 2.0
CREATION_DATE  = 
ORIGINATOR     = 

OBJECT_NAME    = STARLINK-36043
OBJECT_ID      = 2025-283Z
CENTER_NAME    = EARTH
REF_FRAME      = TEME
TIME_SYSTEM    = UTC
MEAN_ELEMENT_THEORY = SGP/SGP4

EPOCH          = 2025-12-28T06:00:02.000160
MEAN_MOTION    = 15.49314124
ECCENTRICITY   = .00013979
INCLINATION    = 53.1598
RA_OF_ASC_NODE = 356.8987
ARG_OF_PERICENTER = 82.7207
MEAN_ANOMALY   = 278.9765

EPHEMERIS_TYPE = 0
CLASSIFICATION_TYPE = U
NORAD_CAT_ID   = 66901
ELEMENT_SET_NO = 999
REV_AT_EPOCH   = 492
BSTAR          = -.97370884E-3
MEAN_MOTION_DOT = -.54238E-3
MEAN_MOTION_DDOT = 0

CCSDS_OMM_VERS = 2.0
CREATION_DATE  = 
ORIGINATOR     = 

OBJECT_NAME    = STARLINK-35983
OBJECT_ID      = 2025-283AA
CENTER_NAME    = EARTH
REF_FRAME      = TEME
TIME_SYSTEM    = UTC
MEAN_ELEMENT_THEORY = SGP/SGP4

EPOCH          = 2025-12-28T06:00:02.000160
MEAN_MOTION    = 15.49308939
ECCENTRICITY   = .00014807
INCLINATION    = 53.1599
RA_OF_ASC_NODE = 356.8943
ARG_OF_PERICENTER = 80.3614
MEAN_ANOMALY   = 283.2547

EPHEMERIS_TYPE = 0
CLASSIFICATION_TYPE = U
NORAD_CAT_ID   = 66902
ELEMENT_SET_NO = 999
REV_AT_EPOCH   = 492
BSTAR          = -.84065377E-3
MEAN_MOTION_DOT = -.46923E-3
MEAN_MOTION_DDOT = 0

CCSDS_OMM_VERS = 2.0
CREATION_DATE  = 
ORIGINATOR     = 

OBJECT_NAME    = STARLINK-36077
OBJECT_ID      = 2025-283AB
CENTER_NAME    = EARTH
REF_FRAME      = TEME
TIME_SYSTEM    = UTC
MEAN_ELEMENT_THEORY = SGP/SGP4

EPOCH          = 2025-12-28T06:00:02.000160
MEAN_MOTION    = 15.49310870
ECCENTRICITY   = .00013731
INCLINATION    = 53.1598
RA_OF_ASC_NODE = 356.8910
ARG_OF_PERICENTER = 79.6047
MEAN_ANOMALY   = 285.9296

EPHEMERIS_TYPE = 0
CLASSIFICATION_TYPE = U
NORAD_CAT_ID   = 66903
ELEMENT_SET_NO = 999
REV_AT_EPOCH   = 492
BSTAR          = -.89610459E-3
MEAN_MOTION_DOT = -.49972E-3
MEAN_MOTION_DDOT = 0

CCSDS_OMM_VERS = 2.0
CREATION_DATE  = 
ORIGINATOR     = 

OBJECT_NAME    = STARLINK-36059
OBJECT_ID      = 2025-283AC
CENTER_NAME    = EARTH
REF_FRAME      = TEME
TIME_SYSTEM    = UTC
MEAN_ELEMENT_THEORY = SGP/SGP4

EPOCH          = 2025-12-28T06:00:02.000160
MEAN_MOTION    = 15.49312582
ECCENTRICITY   = .00014411
INCLINATION    = 53.1599
RA_OF_ASC_NODE = 356.8863
ARG_OF_PERICENTER = 76.0131
MEAN_ANOMALY   = 291.4375

EPHEMERIS_TYPE = 0
CLASSIFICATION_TYPE = U
NORAD_CAT_ID   = 66904
ELEMENT_SET_NO = 999
REV_AT_EPOCH   = 492
BSTAR          = -.94212525E-3
MEAN_MOTION_DOT = -.52502E-3
MEAN_MOTION_DDOT = 0

