STARLINK-36033          
1 66893U 25283R   25362.25002315 -.00051084  00000+0 -91628-3 0  9996
2 66893  53.1598 356.9311 0001453  80.3810 265.9815 15.49312786  4923
STARLINK-35718          
1 66894U 25283S   25362.25002315  .00063921  00000+0  11505-2 0  9993
2 66894  53.1599 356.9281 0001355  82.0406 266.2678 15.49244839  4926
STARLINK-35971          
1 66895U 25283T   25362.25002315 -.00052028  00000+0 -93351-3 0  9992
2 66895  53.1598 356.9181 0001458  84.8811 267.2334 15.49312079  4921
STARLINK-35791          
1 66896U 25283U   25362.25002315 -.00068266  00000+0 -12296-2 0  9992
2 66896  53.1597 356.9228 0001164  97.4152 252.7819 15.49319179  4920
STARLINK-36079          
1 66897U 25283V   25362.25002315 -.00053291  00000+0 -95650-3 0  9991
2 66897  53.1599 356.9149 0001353  76.3779 277.6533 15.49312468  4929
STARLINK-36065          
1 66898U 25283W   25362.25002315 -.00047906  00000+0 -85861-3 0  9991
2 66898  53.1600 356.9106 0001540  84.2937 271.6618 15.49306225  4920
STARLINK-36064          
1 66899U 25283X   25362.25002315 -.00044829  00000+0 -80257-3 0  9997
2 66899  53.1600 356.9066 0001464  77.4693 280.3970 15.49308645  4863
STARLINK-36074          
1 66900U 25283Y   25362.25002315 -.00049573  00000+0 -88882-3 0  9993
2 66900  53.1599 356.9025 0001502  83.0808 276.7040 15.49310570  4926
STARLINK-36043          
1 66901U 25283Z   25362.25002315 -.00054238  00000+0 -97371-3 0  9991
2 66901  53.1598 356.8987 0001397  82.7207 278.9765 15.49314124  4920
STARLINK-35983          
1 66902U 25283AA  25362.25002315 -.00046923  00000+0 -84065-3 0  9990
2 66902  53.1599 356.8943 0001480  80.3614 283.2547 15.49308939  4927
STARLINK-36077          
1 66903U 25283AB  25362.25002315 -.00049972  00000+0 -89610-3 0  9999
2 66903  53.1598 356.8910 0001373  79.6047 285.9296 15.49310870  4920
STARLINK-36059          
1 66904U 25283AC  25362.25002315 -.00052502  00000+0 -94213-3 0  9998
2 66904  53.1599 356.8863 0001441  76.0131 291.4375 15.49312582  4922
